{"type": "FeatureCollection", "features": [ {"type": "Feature", "properties": {"norad_id": 66430, "name": "STARLINK-35470", "group": "last-30-days", "lat": -30.48866975094818, "lon": 27.454519293167674, "alt_km": 446.34697806724216, "timestamp": "2025-12-09T11:33:53.574254+00:00", "meta": {"OBJECT_NAME": "STARLINK-35470", "OBJECT_ID": "2025-259J", "EPOCH": "2025-12-09T04:00:01.998720", "MEAN_MOTION": 15.40619722, "ECCENTRICITY": 0.0001491, "INCLINATION": 43.0007, "RA_OF_ASC_NODE": 68.4556, "ARG_OF_PERICENTER": 249.3923, "MEAN_ANOMALY": 112.3896, "EPHEMERIS_TYPE": 0, "CLASSIFICATION_TYPE": "U", "NORAD_CAT_ID": 66430, "ELEMENT_SET_NO": 999, "REV_AT_EPOCH": 570, "BSTAR": 0.0021592, "MEAN_MOTION_DOT": 0.0009073, "MEAN_MOTION_DDOT": 0}, "tle": {"line1": "1 66430U 25259J   25343.16668980  .00090730  00000+0  21592-2 0  9992", "line2": "2 66430  43.0007  68.4556 0001491 249.3923 112.3896 15.40619722  5705"}}, "geometry": {"type": "Point", "coordinates": [27.454519293167674, -30.48866975094818]}}, {"type": "Feature", "properties": {"norad_id": 66431, "name": "STARLINK-35439", "group": "last-30-days", "lat": -23.454300642481346, "lon": 38.8598725410661, "alt_km": 445.5466901816362, "timestamp": "2025-12-09T11:33:53.574264+00:00", "meta": {"OBJECT_NAME": "STARLINK-35439", "OBJECT_ID": "2025-259K", "EPOCH": "2025-12-09T04:00:01.998720", "MEAN_MOTION": 15.40705926, "ECCENTRICITY": 0.0001184, "INCLINATION": 43.0006, "RA_OF_ASC_NODE": 68.4246, "ARG_OF_PERICENTER": 273.9081, "MEAN_ANOMALY": 100.1621, "EPHEMERIS_TYPE": 0, "CLASSIFICATION_TYPE": "U", "NORAD_CAT_ID": 66431, "ELEMENT_SET_NO": 999, "REV_AT_EPOCH": 570, "BSTAR": 0.0023276, "MEAN_MOTION_DOT": 0.00098205, "MEAN_MOTION_DDOT": 0}, "tle": {"line1": "1 66431U 25259K   25343.16668980  .00098205  00000+0  23276-2 0  9999", "line2": "2 66431  43.0006  68.4246 0001184 273.9081 100.1621 15.40705926  5701"}}, "geometry": {"type": "Point", "coordinates": [38.8598725410661, -23.454300642481346]}}, {"type": "Feature", "properties": {"norad_id": 66432, "name": "STARLINK-35446", "group": "last-30-days", "lat": -15.60224381702593, "lon": 49.139717613693286, "alt_km": 445.35696029608516, "timestamp": "2025-12-09T11:33:53.574274+00:00", "meta": {"OBJECT_NAME": "STARLINK-35446", "OBJECT_ID": "2025-259L", "EPOCH": "2025-12-09T04:00:01.998720", "MEAN_MOTION": 15.40639776, "ECCENTRICITY": 0.0001056, "INCLINATION": 43.0005, "RA_OF_ASC_NODE": 68.3937, "ARG_OF_PERICENTER": 262.0245, "MEAN_ANOMALY": 124.6089, "EPHEMERIS_TYPE": 0, "CLASSIFICATION_TYPE": "U", "NORAD_CAT_ID": 66432, "ELEMENT_SET_NO": 999, "REV_AT_EPOCH": 570, "BSTAR": 0.0025459, "MEAN_MOTION_DOT": 0.00107337, "MEAN_MOTION_DDOT": 0}, "tle": {"line1": "1 66432U 25259L   25343.16668980  .00107337  00000+0  25459-2 0  9992", "line2": "2 66432  43.0005  68.3937 0001056 262.0245 124.6089 15.40639776  5704"}}, "geometry": {"type": "Point", "coordinates": [49.139717613693286, -15.60224381702593]}}, {"type": "Feature", "properties": {"norad_id": 66433, "name": "STARLINK-35457", "group": "last-30-days", "lat": -7.334418840613729, "lon": 58.60786670564996, "alt_km": 444.72970793332115, "timestamp": "2025-12-09T11:33:53.574284+00:00", "meta": {"OBJECT_NAME": "STARLINK-35457", "OBJECT_ID": "2025-259M", "EPOCH": "2025-12-09T04:00:01.998720", "MEAN_MOTION": 15.40621385, "ECCENTRICITY": 0.0001315, "INCLINATION": 43.0003, "RA_OF_ASC_NODE": 68.3638, "ARG_OF_PERICENTER": 255.7727, "MEAN_ANOMALY": 143.3181, "EPHEMERIS_TYPE": 0, "CLASSIFICATION_TYPE": "U", "NORAD_CAT_ID": 66433, "ELEMENT_SET_NO": 999, "REV_AT_EPOCH": 570, "BSTAR": 0.0030315, "MEAN_MOTION_DOT": 0.00128141, "MEAN_MOTION_DDOT": 0}, "tle": {"line1": "1 66433U 25259M   25343.16668980  .00128141  00000+0  30315-2 0  9996", "line2": "2 66433  43.0003  68.3638 0001315 255.7727 143.3181 15.40621385  5701"}}, "geometry": {"type": "Point", "coordinates": [58.60786670564996, -7.334418840613729]}}, {"type": "Feature", "properties": {"norad_id": 66434, "name": "STARLINK-35389", "group": "last-30-days", "lat": 1.1247170583312978, "lon": 67.72421789559056, "alt_km": 443.7497925379994, "timestamp": "2025-12-09T11:33:53.574294+00:00", "meta": {"OBJECT_NAME": "STARLINK-35389", "OBJECT_ID": "2025-259N", "EPOCH": "2025-12-09T04:00:01.998720", "MEAN_MOTION": 15.40636865, "ECCENTRICITY": 9.56e-05, "INCLINATION": 43.0003, "RA_OF_ASC_NODE": 68.3336, "ARG_OF_PERICENTER": 264.5635, "MEAN_ANOMALY": 146.9707, "EPHEMERIS_TYPE": 0, "CLASSIFICATION_TYPE": "U", "NORAD_CAT_ID": 66434, "ELEMENT_SET_NO": 999, "REV_AT_EPOCH": 570, "BSTAR": 0.0020798, "MEAN_MOTION_DOT": 0.00087394, "MEAN_MOTION_DDOT": 0}, "tle": {"line1": "1 66434U 25259N   25343.16668980  .00087394  00000+0  20798-2 0  9995", "line2": "2 66434  43.0003  68.3336 0000956 264.5635 146.9707 15.40636865  5705"}}, "geometry": {"type": "Point", "coordinates": [67.72421789559056, 1.1247170583312978]}}, {"type": "Feature", "properties": {"norad_id": 66435, "name": "STARLINK-35502", "group": "last-30-days", "lat": 9.561810219056152, "lon": 76.90237806793995, "alt_km": 442.5647331244709, "timestamp": "2025-12-09T11:33:53.574306+00:00", "meta": {"OBJECT_NAME": "STARLINK-35502", "OBJECT_ID": "2025-259P", "EPOCH": "2025-12-09T04:00:01.998720", "MEAN_MOTION": 15.40637309, "ECCENTRICITY": 0.0001119, "INCLINATION": 43.0002, "RA_OF_ASC_NODE": 68.3044, "ARG_OF_PERICENTER": 274.8727, "MEAN_ANOMALY": 149.1013, "EPHEMERIS_TYPE": 0, "CLASSIFICATION_TYPE": "U", "NORAD_CAT_ID": 66435, "ELEMENT_SET_NO": 999, "REV_AT_EPOCH": 570, "BSTAR": 0.0025244, "MEAN_MOTION_DOT": 0.00106406, "MEAN_MOTION_DDOT": 0}, "tle": {"line1": "1 66435U 25259P   25343.16668980  .00106406  00000+0  25244-2 0  9993", "line2": "2 66435  43.0002  68.3044 0001119 274.8727 149.1013 15.40637309  5708"}}, "geometry": {"type": "Point", "coordinates": [76.90237806793995, 9.561810219056152]}}, {"type": "Feature", "properties": {"norad_id": 66436, "name": "STARLINK-35501", "group": "last-30-days", "lat": 25.45444481448631, "lon": 97.1433729960894, "alt_km": 440.47058247953646, "timestamp": "2025-12-09T11:33:53.574316+00:00", "meta": {"OBJECT_NAME": "STARLINK-35501", "OBJECT_ID": "2025-259Q", "EPOCH": "2025-12-09T04:00:01.998720", "MEAN_MOTION": 15.41888587, "ECCENTRICITY": 0.0001485, "INCLINATION": 43.0002, "RA_OF_ASC_NODE": 68.2442, "ARG_OF_PERICENTER": 278.4773, "MEAN_ANOMALY": 169.7152, "EPHEMERIS_TYPE": 0, "CLASSIFICATION_TYPE": "U", "NORAD_CAT_ID": 66436, "ELEMENT_SET_NO": 999, "REV_AT_EPOCH": 570, "BSTAR": -0.042118, "MEAN_MOTION_DOT": -0.01637986, "MEAN_MOTION_DDOT": 0}, "tle": {"line1": "1 66436U 25259Q   25343.16668980 -.01637986  00000+0 -42118-1 0  9997", "line2": "2 66436  43.0002  68.2442 0001485 278.4773 169.7152 15.41888587  5706"}}, "geometry": {"type": "Point", "coordinates": [97.1433729960894, 25.45444481448631]}}, {"type": "Feature", "properties": {"norad_id": 66437, "name": "STARLINK-35474", "group": "last-30-days", "lat": 31.93272143011206, "lon": 108.37219598312495, "alt_km": 436.1902089295918, "timestamp": "2025-12-09T11:33:53.574340+00:00", "meta": {"OBJECT_NAME": "STARLINK-35474", "OBJECT_ID": "2025-259R", "EPOCH": "2025-12-09T04:00:01.998720", "MEAN_MOTION": 15.43291257, "ECCENTRICITY": 0.0001728, "INCLINATION": 43.0008, "RA_OF_ASC_NODE": 68.2199, "ARG_OF_PERICENTER": 273.9655, "MEAN_ANOMALY": 184.5151, "EPHEMERIS_TYPE": 0, "CLASSIFICATION_TYPE": "U", "NORAD_CAT_ID": 66437, "ELEMENT_SET_NO": 999, "REV_AT_EPOCH": 570, "BSTAR": -0.046291, "MEAN_MOTION_DOT": -0.01892157, "MEAN_MOTION_DDOT": 0}, "tle": {"line1": "1 66437U 25259R   25343.16668980 -.01892157  00000+0 -46291-1 0  9997", "line2": "2 66437  43.0008  68.2199 0001728 273.9655 184.5151 15.43291257  5709"}}, "geometry": {"type": "Point", "coordinates": [108.37219598312495, 31.93272143011206]}}, {"type": "Feature", "properties": {"norad_id": 66438, "name": "STARLINK-34681", "group": "last-30-days", "lat": 42.82468363815918, "lon": 150.35165628494346, "alt_km": 407.9057257972481, "timestamp": "2025-12-09T11:33:53.574352+00:00", "meta": {"OBJECT_NAME": "STARLINK-34681", "OBJECT_ID": "2025-259S", "EPOCH": "2025-12-08T22:50:08.479392", "MEAN_MOTION": 15.51161578, "ECCENTRICITY": 0.001341, "INCLINATION": 43.0001, "RA_OF_ASC_NODE": 69.4198, "ARG_OF_PERICENTER": 340.5271, "MEAN_ANOMALY": 19.5076, "EPHEMERIS_TYPE": 0, "CLASSIFICATION_TYPE": "U", "NORAD_CAT_ID": 66438, "ELEMENT_SET_NO": 999, "REV_AT_EPOCH": 547, "BSTAR": 0.0023827, "MEAN_MOTION_DOT": 0.00145528, "MEAN_MOTION_DDOT": 0}, "tle": {"line1": "1 66438U 25259S   25342.95148703  .00145528  00000+0  23827-2 0  9991", "line2": "2 66438  43.0001  69.4198 0013410 340.5271  19.5076 15.51161578  5479"}}, "geometry": {"type": "Point", "coordinates": [150.35165628494346, 42.82468363815918]}}, {"type": "Feature", "properties": {"norad_id": 66439, "name": "STARLINK-35327", "group": "last-30-days", "lat": 17.74191970177449, "lon": 86.53771539900337, "alt_km": 441.68226401923766, "timestamp": "2025-12-09T11:33:53.574363+00:00", "meta": {"OBJECT_NAME": "STARLINK-35327", "OBJECT_ID": "2025-259T", "EPOCH": "2025-12-09T04:00:01.998720", "MEAN_MOTION": 15.40626064, "ECCENTRICITY": 0.0001054, "INCLINATION": 43.0003, "RA_OF_ASC_NODE": 68.2737, "ARG_OF_PERICENTER": 261.7099, "MEAN_ANOMALY": 174.7275, "EPHEMERIS_TYPE": 0, "CLASSIFICATION_TYPE": "U", "NORAD_CAT_ID": 66439, "ELEMENT_SET_NO": 999, "REV_AT_EPOCH": 570, "BSTAR": 0.0020188, "MEAN_MOTION_DOT": 0.00084759, "MEAN_MOTION_DDOT": 0}, "tle": {"line1": "1 66439U 25259T   25343.16668980  .00084759  00000+0  20188-2 0  9995", "line2": "2 66439  43.0003  68.2737 0001054 261.7099 174.7275 15.40626064  5706"}}, "geometry": {"type": "Point", "coordinates": [86.53771539900337, 17.74191970177449]}}]}